[{"OBJECT_NAME":"STARLINK-36292","OBJECT_ID":"2026-068B","EPOCH":"2026-04-24T18:04:44.965344","MEAN_MOTION":15.80950967,"ECCENTRICITY":0.00013858,"INCLINATION":53.1562,"RA_OF_ASC_NODE":278.4593,"ARG_OF_PERICENTER":2.3158,"MEAN_ANOMALY":357.7871,"EPHEMERIS_TYPE":0,"CLASSIFICATION_TYPE":"U","NORAD_CAT_ID":68509,"ELEMENT_SET_NO":999,"REV_AT_EPOCH":395,"BSTAR":-0.00092423921,"MEAN_MOTION_DOT":-0.00180023,"MEAN_MOTION_DDOT":0},{"OBJECT_NAME":"STARLINK-37260","OBJECT_ID":"2026-068C","EPOCH":"2026-04-24T18:04:45.722208","MEAN_MOTION":15.80902599,"ECCENTRICITY":0.00014196,"INCLINATION":53.156,"RA_OF_ASC_NODE":278.4587,"ARG_OF_PERICENTER":39.3761,"MEAN_ANOMALY":320.7365,"EPHEMERIS_TYPE":0,"CLASSIFICATION_TYPE":"U","NORAD_CAT_ID":68510,"ELEMENT_SET_NO":999,"REV_AT_EPOCH":395,"BSTAR":0.00054236854,"MEAN_MOTION_DOT":0.00107841,"MEAN_MOTION_DDOT":0},{"OBJECT_NAME":"STARLINK-37280","OBJECT_ID":"2026-068D","EPOCH":"2026-04-24T13:30:34.291296","MEAN_MOTION":15.80938479,"ECCENTRICITY":8.85e-5,"INCLINATION":53.1556,"RA_OF_ASC_NODE":279.4045,"ARG_OF_PERICENTER":76.6314,"MEAN_ANOMALY":283.4808,"EPHEMERIS_TYPE":0,"CLASSIFICATION_TYPE":"U","NORAD_CAT_ID":68511,"ELEMENT_SET_NO":999,"REV_AT_EPOCH":392,"BSTAR":0.0009488397,"MEAN_MOTION_DOT":0.00191356,"MEAN_MOTION_DDOT":0},{"OBJECT_NAME":"STARLINK-37286","OBJECT_ID":"2026-068E","EPOCH":"2026-04-26T22:00:00.999936","MEAN_MOTION":15.80809883,"ECCENTRICITY":6.541e-5,"INCLINATION":53.1567,"RA_OF_ASC_NODE":267.6001,"ARG_OF_PERICENTER":29.9258,"MEAN_ANOMALY":57.9831,"EPHEMERIS_TYPE":0,"CLASSIFICATION_TYPE":"U","NORAD_CAT_ID":68512,"ELEMENT_SET_NO":999,"REV_AT_EPOCH":556,"BSTAR":0.00037001011,"MEAN_MOTION_DOT":0.00072733,"MEAN_MOTION_DDOT":0},{"OBJECT_NAME":"STARLINK-36250","OBJECT_ID":"2026-068F","EPOCH":"2026-04-24T16:30:28.956096","MEAN_MOTION":15.8093598,"ECCENTRICITY":0.00010276,"INCLINATION":53.1563,"RA_OF_ASC_NODE":278.7612,"ARG_OF_PERICENTER":37.4284,"MEAN_ANOMALY":322.681,"EPHEMERIS_TYPE":0,"CLASSIFICATION_TYPE":"U","NORAD_CAT_ID":68513,"ELEMENT_SET_NO":999,"REV_AT_EPOCH":394,"BSTAR":0.00076701746,"MEAN_MOTION_DOT":0.00153858,"MEAN_MOTION_DDOT":0},{"OBJECT_NAME":"STARLINK-37251","OBJECT_ID":"2026-068G","EPOCH":"2026-04-26T22:00:00.999936","MEAN_MOTION":15.65414095,"ECCENTRICITY":6.875e-5,"INCLINATION":53.1589,"RA_OF_ASC_NODE":267.7425,"ARG_OF_PERICENTER":53.251,"MEAN_ANOMALY":324.2162,"EPHEMERIS_TYPE":0,"CLASSIFICATION_TYPE":"U","NORAD_CAT_ID":68514,"ELEMENT_SET_NO":999,"REV_AT_EPOCH":556,"BSTAR":-0.027662017,"MEAN_MOTION_DOT":-0.02460059,"MEAN_MOTION_DDOT":0},{"OBJECT_NAME":"STARLINK-36293","OBJECT_ID":"2026-068H","EPOCH":"2026-04-22T23:30:21.654720","MEAN_MOTION":15.81068158,"ECCENTRICITY":0.00018321,"INCLINATION":53.1568,"RA_OF_ASC_NODE":287.3051,"ARG_OF_PERICENTER":44.5246,"MEAN_ANOMALY":315.5924,"EPHEMERIS_TYPE":0,"CLASSIFICATION_TYPE":"U","NORAD_CAT_ID":68515,"ELEMENT_SET_NO":999,"REV_AT_EPOCH":367,"BSTAR":0.0018284858,"MEAN_MOTION_DOT":0.00379916,"MEAN_MOTION_DDOT":0},{"OBJECT_NAME":"STARLINK-36290","OBJECT_ID":"2026-068J","EPOCH":"2026-04-25T08:00:01.999872","MEAN_MOTION":15.80810153,"ECCENTRICITY":8.996e-5,"INCLINATION":53.1562,"RA_OF_ASC_NODE":275.4986,"ARG_OF_PERICENTER":86.6749,"MEAN_ANOMALY":2.158,"EPHEMERIS_TYPE":0,"CLASSIFICATION_TYPE":"U","NORAD_CAT_ID":68516,"ELEMENT_SET_NO":999,"REV_AT_EPOCH":526,"BSTAR":0.00060449537,"MEAN_MOTION_DOT":0.00119929,"MEAN_MOTION_DDOT":0},{"OBJECT_NAME":"STARLINK-36298","OBJECT_ID":"2026-068K","EPOCH":"2026-04-26T22:00:00.999936","MEAN_MOTION":15.61009369,"ECCENTRICITY":5.233e-5,"INCLINATION":53.1588,"RA_OF_ASC_NODE":267.8242,"ARG_OF_PERICENTER":68.7256,"MEAN_ANOMALY":268.2025,"EPHEMERIS_TYPE":0,"CLASSIFICATION_TYPE":"U","NORAD_CAT_ID":68517,"ELEMENT_SET_NO":999,"REV_AT_EPOCH":551,"BSTAR":-0.031636434,"MEAN_MOTION_DOT":-0.0237426,"MEAN_MOTION_DDOT":0},{"OBJECT_NAME":"STARLINK-36857","OBJECT_ID":"2026-068L","EPOCH":"2026-04-24T17:55:02.274240","MEAN_MOTION":15.80947309,"ECCENTRICITY":0.00012269,"INCLINATION":53.1565,"RA_OF_ASC_NODE":278.4149,"ARG_OF_PERICENTER":19.6602,"MEAN_ANOMALY":340.4468,"EPHEMERIS_TYPE":0,"CLASSIFICATION_TYPE":"U","NORAD_CAT_ID":68518,"ELEMENT_SET_NO":999,"REV_AT_EPOCH":395,"BSTAR":0.00095672508,"MEAN_MOTION_DOT":0.00193069,"MEAN_MOTION_DDOT":0},{"OBJECT_NAME":"STARLINK-36326","OBJECT_ID":"2026-068M","EPOCH":"2026-04-24T19:27:08.611776","MEAN_MOTION":15.80945013,"ECCENTRICITY":0.00017432,"INCLINATION":53.1547,"RA_OF_ASC_NODE":278.106,"ARG_OF_PERICENTER":201.755,"MEAN_ANOMALY":158.3399,"EPHEMERIS_TYPE":0,"CLASSIFICATION_TYPE":"U","NORAD_CAT_ID":68519,"ELEMENT_SET_NO":999,"REV_AT_EPOCH":396,"BSTAR":0.0012915376,"MEAN_MOTION_DOT":0.00262997,"MEAN_MOTION_DDOT":0},{"OBJECT_NAME":"STARLINK-37126","OBJECT_ID":"2026-068N","EPOCH":"2026-04-23T16:06:20.793600","MEAN_MOTION":15.81008306,"ECCENTRICITY":8.742e-5,"INCLINATION":53.1564,"RA_OF_ASC_NODE":283.7948,"ARG_OF_PERICENTER":108.1875,"MEAN_ANOMALY":251.9243,"EPHEMERIS_TYPE":0,"CLASSIFICATION_TYPE":"U","NORAD_CAT_ID":68520,"ELEMENT_SET_NO":999,"REV_AT_EPOCH":378,"BSTAR":0.0014409388,"MEAN_MOTION_DOT":0.00295485,"MEAN_MOTION_DDOT":0},{"OBJECT_NAME":"STARLINK-36347","OBJECT_ID":"2026-068P","EPOCH":"2026-04-24T19:23:54.849408","MEAN_MOTION":15.80925254,"ECCENTRICITY":0.00010525,"INCLINATION":53.1572,"RA_OF_ASC_NODE":278.0888,"ARG_OF_PERICENTER":61.1277,"MEAN_ANOMALY":298.9851,"EPHEMERIS_TYPE":0,"CLASSIFICATION_TYPE":"U","NORAD_CAT_ID":68521,"ELEMENT_SET_NO":999,"REV_AT_EPOCH":396,"BSTAR":0.0007358903,"MEAN_MOTION_DOT":0.00147401,"MEAN_MOTION_DDOT":0},{"OBJECT_NAME":"STARLINK-36322","OBJECT_ID":"2026-068Q","EPOCH":"2026-04-26T22:00:00.999936","MEAN_MOTION":15.79875077,"ECCENTRICITY":0.0001114,"INCLINATION":53.1567,"RA_OF_ASC_NODE":267.5121,"ARG_OF_PERICENTER":47.4812,"MEAN_ANOMALY":82.7834,"EPHEMERIS_TYPE":0,"CLASSIFICATION_TYPE":"U","NORAD_CAT_ID":68522,"ELEMENT_SET_NO":999,"REV_AT_EPOCH":551,"BSTAR":-0.013890818,"MEAN_MOTION_DOT":-0.02278414,"MEAN_MOTION_DDOT":0},{"OBJECT_NAME":"STARLINK-37208","OBJECT_ID":"2026-068R","EPOCH":"2026-04-24T13:16:31.379808","MEAN_MOTION":15.80977313,"ECCENTRICITY":0.00020351,"INCLINATION":53.1573,"RA_OF_ASC_NODE":279.3403,"ARG_OF_PERICENTER":325.6103,"MEAN_ANOMALY":34.4788,"EPHEMERIS_TYPE":0,"CLASSIFICATION_TYPE":"U","NORAD_CAT_ID":68523,"ELEMENT_SET_NO":999,"REV_AT_EPOCH":392,"BSTAR":0.0011944767,"MEAN_MOTION_DOT":0.00242975,"MEAN_MOTION_DDOT":0},{"OBJECT_NAME":"STARLINK-36302","OBJECT_ID":"2026-068S","EPOCH":"2026-04-24T16:18:14.512032","MEAN_MOTION":15.81622397,"ECCENTRICITY":0.00012277,"INCLINATION":53.1574,"RA_OF_ASC_NODE":278.7021,"ARG_OF_PERICENTER":24.8806,"MEAN_ANOMALY":335.2276,"EPHEMERIS_TYPE":0,"CLASSIFICATION_TYPE":"U","NORAD_CAT_ID":68524,"ELEMENT_SET_NO":999,"REV_AT_EPOCH":394,"BSTAR":0.0017444649,"MEAN_MOTION_DOT":0.00371471,"MEAN_MOTION_DDOT":0}]
